stk.v.4.3 

BEGIN Ephemeris 
 
NumberOfEphemerisPoints		146 
ScenarioEpoch	    1 Sep 2020 19: 4:19.630563856 
InterpolationMethod		Lagrange 
InterpolationOrder		5 
CentralBody				Earth 
CoordinateSystem			TEME 
CoordinateSystemEpoch	  1 Sep 2020 19: 4:19.630563856 
DistanceUnit			Kilometers 
 
EphemerisTimePosVel 
 
       0.00000000   -6601.78911838    2768.66934697       0.03228736 -0.172432365 -0.435171272  7.448790591
 END Ephemeris 
